start=new Date('2023-03-27T00:00:00.000Z').valueOf();
sats=[{"OBJECT_ID":"2023-020J","MEAN_MOTION_DOT":"-0.00874329","EPHEMERIS_TYPE":"0","CENTER_NAME":"EARTH","PERIOD":"94.584","MEAN_ELEMENT_THEORY":"SGP4","REV_AT_EPOCH":"130","GP_ID":"228921638","RCS_SIZE":"LARGE","SITE":"AFETR","MEAN_ANOMALY":"194.9327","EPOCH":"2023-03-26T22:00:01.999584","DECAY_DATE":null,"MEAN_MOTION":"15.22449902","TLE_LINE2":"2 55577  42.9971 104.4137 0001257 272.8335 194.9327 15.22449902  1305","ELEMENT_SET_NO":"999","MEAN_MOTION_DDOT":"0.0000000000000","COUNTRY_CODE":"US","LAUNCH_DATE":"2023-02-12","BSTAR":"-0.03984700000000","ECCENTRICITY":"0.00012570","RA_OF_ASC_NODE":"104.4137","SEMIMAJOR_AXIS":"6876.591","REF_FRAME":"TEME","APOAPSIS":"499.320","OBJECT_TYPE":"PAYLOAD","ARG_OF_PERICENTER":"272.8335","TLE_LINE1":"1 55577U 23020J   23085.91668981 -.00874329  00000-0 -39847-1 0  9999","OBJECT_NAME":"STARLINK-5752","CLASSIFICATION_TYPE":"U","TIME_SYSTEM":"UTC","INCLINATION":"42.9971","FILE":"3871964","PERIAPSIS":"497.591","NORAD_CAT_ID":"55577"},{"RCS_SIZE":"LARGE","SITE":"AFETR","MEAN_ANOMALY":"52.1949","DECAY_DATE":null,"EPOCH":"2023-03-26T22:00:01.999584","REV_AT_EPOCH":"130","GP_ID":"228920887","CENTER_NAME":"EARTH","EPHEMERIS_TYPE":"0","PERIOD":"95.688","MEAN_ELEMENT_THEORY":"SGP4","OBJECT_ID":"2023-020K","MEAN_MOTION_DOT":"-0.00554963","INCLINATION":"42.9974","FILE":"3871964","PERIAPSIS":"550.902","NORAD_CAT_ID":"55578","OBJECT_TYPE":"PAYLOAD","ARG_OF_PERICENTER":"264.0728","OBJECT_NAME":"STARLINK-5713","TLE_LINE1":"1 55578U 23020K   23085.91668981 -.00554963  00000-0 -41201-1 0  9996","CLASSIFICATION_TYPE":"U","TIME_SYSTEM":"UTC","BSTAR":"-0.04120100000000","RA_OF_ASC_NODE":"106.5095","ECCENTRICITY":"0.00013250","SEMIMAJOR_AXIS":"6929.956","REF_FRAME":"TEME","APOAPSIS":"552.739","TLE_LINE2":"2 55578  42.9974 106.5095 0001325 264.0728  52.1949 15.04898068  1306","ELEMENT_SET_NO":"999","MEAN_MOTION":"15.04898068","LAUNCH_DATE":"2023-02-12","MEAN_MOTION_DDOT":"0.0000000000000","COUNTRY_CODE":"US"},{"GP_ID":"228921137","REV_AT_EPOCH":"130","SITE":"AFETR","MEAN_ANOMALY":"80.6992","DECAY_DATE":null,"EPOCH":"2023-03-26T22:00:01.999584","RCS_SIZE":"LARGE","MEAN_MOTION_DOT":"-0.01054191","OBJECT_ID":"2023-020L","PERIOD":"95.655","MEAN_ELEMENT_THEORY":"SGP4","CENTER_NAME":"EARTH","EPHEMERIS_TYPE":"0","TIME_SYSTEM":"UTC","CLASSIFICATION_TYPE":"U","OBJECT_TYPE":"PAYLOAD","ARG_OF_PERICENTER":"262.7460","OBJECT_NAME":"STARLINK-5754","TLE_LINE1":"1 55579U 23020L   23085.91668981 -.01054191  00000-0 -78058-1 0  9996","NORAD_CAT_ID":"55579","INCLINATION":"42.9973","FILE":"3871964","PERIAPSIS":"549.227","MEAN_MOTION":"15.05406437","TLE_LINE2":"2 55579  42.9973 106.4439 0001491 262.7460  80.6992 15.05406437  1309","ELEMENT_SET_NO":"999","LAUNCH_DATE":"2023-02-12","MEAN_MOTION_DDOT":"0.0000000000000","COUNTRY_CODE":"US","SEMIMAJOR_AXIS":"6928.395","REF_FRAME":"TEME","APOAPSIS":"551.293","BSTAR":"-0.07805800000000","RA_OF_ASC_NODE":"106.4439","ECCENTRICITY":"0.00014910"},{"REV_AT_EPOCH":"673","GP_ID":"228921388","RCS_SIZE":"LARGE","SITE":"AFETR","MEAN_ANOMALY":"78.2934","EPOCH":"2023-03-26T22:01:35.503392","DECAY_DATE":null,"OBJECT_ID":"2023-020M","MEAN_MOTION_DOT":"0.00004471","EPHEMERIS_TYPE":"0","CENTER_NAME":"EARTH","PERIOD":"91.640","MEAN_ELEMENT_THEORY":"SGP4","OBJECT_TYPE":"PAYLOAD","ARG_OF_PERICENTER":"281.7789","TLE_LINE1":"1 55580U 23020M   23085.91777203  .00004471  00000-0  37516-4 0  9996","OBJECT_NAME":"STARLINK-5757","CLASSIFICATION_TYPE":"U","TIME_SYSTEM":"UTC","INCLINATION":"43.0011","FILE":"3871964","PERIAPSIS":"354.139","NORAD_CAT_ID":"55580","TLE_LINE2":"2 55580  43.0011  98.5200 0001297 281.7789  78.2934 15.71359468  6737","MEAN_MOTION":"15.71359468","ELEMENT_SET_NO":"999","COUNTRY_CODE":"US","MEAN_MOTION_DDOT":"0.0000000000000","LAUNCH_DATE":"2023-02-12","BSTAR":"0.00003751600000","ECCENTRICITY":"0.00012970","RA_OF_ASC_NODE":"98.5200","REF_FRAME":"TEME","SEMIMAJOR_AXIS":"6733.148","APOAPSIS":"355.886"},{"FILE":"3871964","PERIAPSIS":"551.095","INCLINATION":"42.9976","NORAD_CAT_ID":"55581","OBJECT_NAME":"STARLINK-5753","TLE_LINE1":"1 55581U 23020N   23085.91668981 -.00506255  00000-0 -37425-1 0  9994","ARG_OF_PERICENTER":"270.9655","OBJECT_TYPE":"PAYLOAD","TIME_SYSTEM":"UTC","CLASSIFICATION_TYPE":"U","RA_OF_ASC_NODE":"106.5187","ECCENTRICITY":"0.00013090","BSTAR":"-0.03742500000000","APOAPSIS":"552.909","REF_FRAME":"TEME","SEMIMAJOR_AXIS":"6930.137","LAUNCH_DATE":"2023-02-12","COUNTRY_CODE":"US","MEAN_MOTION_DDOT":"0.0000000000000","TLE_LINE2":"2 55581  42.9976 106.5187 0001309 270.9655  41.4526 15.04838958  1305","ELEMENT_SET_NO":"999","MEAN_MOTION":"15.04838958","RCS_SIZE":"LARGE","DECAY_DATE":null,"EPOCH":"2023-03-26T22:00:01.999584","SITE":"AFETR","MEAN_ANOMALY":"41.4526","REV_AT_EPOCH":"130","GP_ID":"228922139","CENTER_NAME":"EARTH","EPHEMERIS_TYPE":"0","MEAN_ELEMENT_THEORY":"SGP4","PERIOD":"95.691","OBJECT_ID":"2023-020N","MEAN_MOTION_DOT":"-0.00506255"},{"REV_AT_EPOCH":"130","GP_ID":"228920387","RCS_SIZE":"LARGE","EPOCH":"2023-03-26T22:00:01.999584","DECAY_DATE":null,"SITE":"AFETR","MEAN_ANOMALY":"196.6494","OBJECT_ID":"2023-020P","MEAN_MOTION_DOT":"0.00010374","EPHEMERIS_TYPE":"0","CENTER_NAME":"EARTH","MEAN_ELEMENT_THEORY":"SGP4","PERIOD":"92.969","TLE_LINE1":"1 55582U 23020P   23085.91668981  .00010374  00000-0  19343-3 0  9996","OBJECT_NAME":"STARLINK-5741","OBJECT_TYPE":"PAYLOAD","ARG_OF_PERICENTER":"262.2699","TIME_SYSTEM":"UTC","CLASSIFICATION_TYPE":"U","FILE":"3871964","PERIAPSIS":"419.079","INCLINATION":"43.0003","NORAD_CAT_ID":"55582","COUNTRY_CODE":"US","MEAN_MOTION_DDOT":"0.0000000000000","LAUNCH_DATE":"2023-02-12","MEAN_MOTION":"15.48904399","TLE_LINE2":"2 55582  43.0003 100.0572 0001254 262.2699 196.6494 15.48904399  1305","ELEMENT_SET_NO":"999","ECCENTRICITY":"0.00012540","RA_OF_ASC_NODE":"100.0572","BSTAR":"0.00019343000000","APOAPSIS":"420.784","REF_FRAME":"TEME","SEMIMAJOR_AXIS":"6798.067"},{"LAUNCH_DATE":"2023-02-12","MEAN_MOTION_DDOT":"0.0000000000000","COUNTRY_CODE":"US","MEAN_MOTION":"15.05173244","TLE_LINE2":"2 55583  42.9969 106.4794 0001476 259.9789  68.7565 15.05173244  1308","ELEMENT_SET_NO":"999","RA_OF_ASC_NODE":"106.4794","ECCENTRICITY":"0.00014760","BSTAR":"-0.06665300000000","APOAPSIS":"551.999","REF_FRAME":"TEME","SEMIMAJOR_AXIS":"6929.111","OBJECT_NAME":"STARLINK-5742","TLE_LINE1":"1 55583U 23020Q   23085.91668981 -.00894611  00000-0 -66653-1 0  9997","ARG_OF_PERICENTER":"259.9789","OBJECT_TYPE":"PAYLOAD","TIME_SYSTEM":"UTC","CLASSIFICATION_TYPE":"U","FILE":"3871964","PERIAPSIS":"549.953","INCLINATION":"42.9969","NORAD_CAT_ID":"55583","OBJECT_ID":"2023-020Q","MEAN_MOTION_DOT":"-0.00894611","CENTER_NAME":"EARTH","EPHEMERIS_TYPE":"0","MEAN_ELEMENT_THEORY":"SGP4","PERIOD":"95.670","REV_AT_EPOCH":"130","GP_ID":"228920637","RCS_SIZE":"LARGE","DECAY_DATE":null,"EPOCH":"2023-03-26T22:00:01.999584","SITE":"AFETR","MEAN_ANOMALY":"68.7565"},{"ECCENTRICITY":"0.00014440","RA_OF_ASC_NODE":"106.4646","BSTAR":"-0.06929900000000","APOAPSIS":"551.686","REF_FRAME":"TEME","SEMIMAJOR_AXIS":"6928.821","MEAN_MOTION_DDOT":"0.0000000000000","COUNTRY_CODE":"US","LAUNCH_DATE":"2023-02-12","ELEMENT_SET_NO":"999","TLE_LINE2":"2 55584  42.9974 106.4646 0001444 265.0834  69.8877 15.05267874  1306","MEAN_MOTION":"15.05267874","FILE":"3871964","PERIAPSIS":"549.685","INCLINATION":"42.9974","NORAD_CAT_ID":"55584","TLE_LINE1":"1 55584U 23020R   23085.91668981 -.00929658  00000-0 -69299-1 0  9997","OBJECT_NAME":"STARLINK-5736","ARG_OF_PERICENTER":"265.0834","OBJECT_TYPE":"PAYLOAD","TIME_SYSTEM":"UTC","CLASSIFICATION_TYPE":"U","EPHEMERIS_TYPE":"0","CENTER_NAME":"EARTH","MEAN_ELEMENT_THEORY":"SGP4","PERIOD":"95.664","OBJECT_ID":"2023-020R","MEAN_MOTION_DOT":"-0.00929658","RCS_SIZE":"LARGE","EPOCH":"2023-03-26T22:00:01.999584","DECAY_DATE":null,"MEAN_ANOMALY":"69.8877","SITE":"AFETR","REV_AT_EPOCH":"130","GP_ID":"228921889"},{"REV_AT_EPOCH":"130","GP_ID":"228921639","RCS_SIZE":"LARGE","SITE":"AFETR","MEAN_ANOMALY":"205.1070","DECAY_DATE":null,"EPOCH":"2023-03-26T22:00:01.999584","OBJECT_ID":"2023-020S","MEAN_MOTION_DOT":"-0.00013340","CENTER_NAME":"EARTH","EPHEMERIS_TYPE":"0","PERIOD":"92.969","MEAN_ELEMENT_THEORY":"SGP4","OBJECT_TYPE":"PAYLOAD","ARG_OF_PERICENTER":"251.2658","OBJECT_NAME":"STARLINK-5769","TLE_LINE1":"1 55585U 23020S   23085.91668981 -.00013340  00000-0 -23557-3 0  9999","CLASSIFICATION_TYPE":"U","TIME_SYSTEM":"UTC","INCLINATION":"43.0005","FILE":"3871964","PERIAPSIS":"418.820","NORAD_CAT_ID":"55585","MEAN_MOTION":"15.48910406","TLE_LINE2":"2 55585  43.0005 100.0589 0001609 251.2658 205.1070 15.48910406  1307","ELEMENT_SET_NO":"999","LAUNCH_DATE":"2023-02-12","MEAN_MOTION_DDOT":"0.0000000000000","COUNTRY_CODE":"US","BSTAR":"-0.00023557000000","RA_OF_ASC_NODE":"100.0589","ECCENTRICITY":"0.00016090","REF_FRAME":"TEME","SEMIMAJOR_AXIS":"6798.049","APOAPSIS":"421.008"},{"LAUNCH_DATE":"2023-02-12","MEAN_MOTION_DDOT":"0.0000000000000","COUNTRY_CODE":"US","ELEMENT_SET_NO":"999","TLE_LINE2":"2 55586  42.9974 106.4304 0001417 262.8870  86.2684 15.05501499  1307","MEAN_MOTION":"15.05501499","APOAPSIS":"550.950","SEMIMAJOR_AXIS":"6928.104","REF_FRAME":"TEME","RA_OF_ASC_NODE":"106.4304","ECCENTRICITY":"0.00014170","BSTAR":"-0.08210900000000","TIME_SYSTEM":"UTC","CLASSIFICATION_TYPE":"U","OBJECT_NAME":"STARLINK-5767","TLE_LINE1":"1 55586U 23020T   23085.91668981 -.01107372  00000-0 -82109-1 0  9996","OBJECT_TYPE":"PAYLOAD","ARG_OF_PERICENTER":"262.8870","NORAD_CAT_ID":"55586","PERIAPSIS":"548.987","FILE":"3871964","INCLINATION":"42.9974","MEAN_MOTION_DOT":"-0.01107372","OBJECT_ID":"2023-020T","MEAN_ELEMENT_THEORY":"SGP4","PERIOD":"95.649","CENTER_NAME":"EARTH","EPHEMERIS_TYPE":"0","GP_ID":"228920888","REV_AT_EPOCH":"130","DECAY_DATE":null,"EPOCH":"2023-03-26T22:00:01.999584","SITE":"AFETR","MEAN_ANOMALY":"86.2684","RCS_SIZE":"LARGE"}];
